     2.11           N: GPS NAV DATA                         RINEX VERSION / TYPE
teqc  2019Feb25                         20221121 12:25:01UTCPGM / RUN BY / DATE
OSX ker:10.11.6|Core i5|gcc 4.3 -m64|OSX ker:10.10+|=+      COMMENT
    4.6566D-09  1.4901D-08 -5.9605D-08 -1.1921D-07          ION ALPHA
    8.1920D+04  8.1920D+04 -6.5536D+04 -5.2429D+05          ION BETA
   -1.862645149231D-09-9.769962616701D-15   589824     1539 DELTA-UTC: A0,A1,T,W
                                                            END OF HEADER
18 09  7  9 23 59 44.0-4.131952300668D-05 3.183231456205D-12 0.000000000000D+00
    8.000000000000D+00-3.937500000000D+00 4.601620247382D-09-2.148449730366D+00
   -2.272427082062D-07 1.065857103094D-02 9.687617421150D-06 5.153607805252D+03
    4.319840000000D+05 5.401670932770D-08-7.360181799401D-02-1.285225152969D-07
    9.420476551518D-01 1.834375000000D+02-2.407905370284D+00-7.820682905692D-09
   -4.339466470482D-10 1.000000000000D+00 1.539000000000D+03 0.000000000000D+00
    2.000000000000D+00 0.000000000000D+00-1.071020960808D-08 8.000000000000D+00
    4.248420000000D+05 4.000000000000D+00
11 09  7  9 23 59 44.0-9.944196790457D-06-1.477928890381D-12 0.000000000000D+00
    2.400000000000D+01 2.137500000000D+01 6.742066548419D-09-8.377694281166D-02
    1.167878508568D-06 9.475983446464D-03 4.457309842110D-06 5.153681465149D+03
    4.319840000000D+05-1.303851604462D-08-1.365348838431D+00 8.940696716309D-08
    8.888178842725D-01 2.496562500000D+02 7.041881429598D-01-9.275029199338D-09
    2.250093725435D-11 1.000000000000D+00 1.539000000000D+03 0.000000000000D+00
    2.000000000000D+00 0.000000000000D+00-1.164153218269D-08 2.400000000000D+01
    4.288920000000D+05 4.000000000000D+00
